[{"OBJECT_NAME":"STARLINK-32113","OBJECT_ID":"2024-132E","EPOCH":"2026-03-09T23:03:41.339232","MEAN_MOTION":15.30196438,"ECCENTRICITY":0.00013116,"INCLINATION":53.1608,"RA_OF_ASC_NODE":51.0475,"ARG_OF_PERICENTER":87.6102,"MEAN_ANOMALY":272.5049,"EPHEMERIS_TYPE":0,"CLASSIFICATION_TYPE":"U","NORAD_CAT_ID":60282,"ELEMENT_SET_NO":999,"REV_AT_EPOCH":9160,"BSTAR":3.4432901e-5,"MEAN_MOTION_DOT":6.61e-6,"MEAN_MOTION_DDOT":0},{"OBJECT_NAME":"SCS-01 H","OBJECT_ID":"2025-100H","EPOCH":"2026-03-09T23:19:05.376864","MEAN_MOTION":15.31767757,"ECCENTRICITY":0.00071581,"INCLINATION":97.3749,"RA_OF_ASC_NODE":145.8085,"ARG_OF_PERICENTER":277.8492,"MEAN_ANOMALY":82.1937,"EPHEMERIS_TYPE":0,"CLASSIFICATION_TYPE":"U","NORAD_CAT_ID":63989,"ELEMENT_SET_NO":999,"REV_AT_EPOCH":4566,"BSTAR":0.0011436254,"MEAN_MOTION_DOT":0.00035149,"MEAN_MOTION_DDOT":0}]
